start=new Date('2022-09-11T00:00:00.000Z').valueOf();
sats=[{"DECAY_DATE":null,"ELEMENT_SET_NO":"999","APOAPSIS":"540.960","MEAN_MOTION_DOT":"0.00005340","INCLINATION":"53.2167","OBJECT_TYPE":"PAYLOAD","MEAN_MOTION_DDOT":"0.0000000000000","ARG_OF_PERICENTER":"57.5512","GP_ID":"212271065","LAUNCH_DATE":"2022-01-06","CLASSIFICATION_TYPE":"U","OBJECT_ID":"2022-001H","SITE":"AFETR","REF_FRAME":"TEME","TIME_SYSTEM":"UTC","TLE_LINE2":"2 50810  53.2167 126.7387 0001788  57.5512 302.5653 15.08847345 37934","MEAN_MOTION":"15.08847345","COUNTRY_CODE":"US","MEAN_ANOMALY":"302.5653","RA_OF_ASC_NODE":"126.7387","OBJECT_NAME":"STARLINK-3348","REV_AT_EPOCH":"3793","TLE_LINE1":"1 50810U 22001H   22253.82050138  .00005340  00000-0  35330-3 0  9999","CENTER_NAME":"EARTH","BSTAR":"0.00035330000000","PERIOD":"95.437","NORAD_CAT_ID":"50810","ECCENTRICITY":"0.00017880","MEAN_ELEMENT_THEORY":"SGP4","RCS_SIZE":"LARGE","EPHEMERIS_TYPE":"0","FILE":"3567798","PERIAPSIS":"538.486","EPOCH":"2022-09-10T19:41:31.319232","SEMIMAJOR_AXIS":"6917.858"},{"OBJECT_NAME":"STARLINK-3347","RA_OF_ASC_NODE":"126.7673","MEAN_ANOMALY":"308.2532","COUNTRY_CODE":"US","MEAN_MOTION":"15.08849380","NORAD_CAT_ID":"50811","BSTAR":"0.00009301000000","PERIOD":"95.437","CENTER_NAME":"EARTH","TLE_LINE1":"1 50811U 22001J   22253.81313268  .00001193  00000-0  93010-4 0  9997","REV_AT_EPOCH":"3793","EPHEMERIS_TYPE":"0","MEAN_ELEMENT_THEORY":"SGP4","RCS_SIZE":"LARGE","ECCENTRICITY":"0.00014570","SEMIMAJOR_AXIS":"6917.852","EPOCH":"2022-09-10T19:30:54.663552","PERIAPSIS":"538.709","FILE":"3567798","APOAPSIS":"540.725","ELEMENT_SET_NO":"999","DECAY_DATE":null,"OBJECT_TYPE":"PAYLOAD","INCLINATION":"53.2169","MEAN_MOTION_DOT":"0.00001193","LAUNCH_DATE":"2022-01-06","ARG_OF_PERICENTER":"51.8591","GP_ID":"212269813","MEAN_MOTION_DDOT":"0.0000000000000","TLE_LINE2":"2 50811  53.2169 126.7673 0001457  51.8591 308.2532 15.08849380 37932","TIME_SYSTEM":"UTC","REF_FRAME":"TEME","OBJECT_ID":"2022-001J","SITE":"AFETR","CLASSIFICATION_TYPE":"U"},{"EPHEMERIS_TYPE":"0","RCS_SIZE":"LARGE","MEAN_ELEMENT_THEORY":"SGP4","ECCENTRICITY":"0.00019010","EPOCH":"2022-09-10T20:14:41.944992","SEMIMAJOR_AXIS":"6917.882","PERIAPSIS":"538.432","FILE":"3567798","COUNTRY_CODE":"US","MEAN_ANOMALY":"301.5645","OBJECT_NAME":"STARLINK-3338","RA_OF_ASC_NODE":"126.6093","MEAN_MOTION":"15.08839512","NORAD_CAT_ID":"50812","PERIOD":"95.438","BSTAR":"-0.00001125400000","TLE_LINE1":"1 50812U 22001K   22253.84354103 -.00000467  00000-0 -11254-4 0  9999","REV_AT_EPOCH":"3793","CENTER_NAME":"EARTH","LAUNCH_DATE":"2022-01-06","MEAN_MOTION_DDOT":"0.0000000000000","GP_ID":"212270063","ARG_OF_PERICENTER":"58.5533","REF_FRAME":"TEME","TLE_LINE2":"2 50812  53.2167 126.6093 0001901  58.5533 301.5645 15.08839512 37937","TIME_SYSTEM":"UTC","SITE":"AFETR","OBJECT_ID":"2022-001K","CLASSIFICATION_TYPE":"U","ELEMENT_SET_NO":"999","APOAPSIS":"541.062","DECAY_DATE":null,"OBJECT_TYPE":"PAYLOAD","MEAN_MOTION_DOT":"-0.00000467","INCLINATION":"53.2167"},{"MEAN_ANOMALY":"302.1492","COUNTRY_CODE":"US","OBJECT_NAME":"STARLINK-3349","RA_OF_ASC_NODE":"126.7790","MEAN_MOTION":"15.08835974","PERIOD":"95.438","BSTAR":"0.00002272800000","TLE_LINE1":"1 50813U 22001L   22253.81040740  .00000074  00000-0  22728-4 0  9996","REV_AT_EPOCH":"3793","CENTER_NAME":"EARTH","NORAD_CAT_ID":"50813","RCS_SIZE":"LARGE","MEAN_ELEMENT_THEORY":"SGP4","ECCENTRICITY":"0.00016050","EPHEMERIS_TYPE":"0","PERIAPSIS":"538.647","FILE":"3567798","EPOCH":"2022-09-10T19:26:59.199360","SEMIMAJOR_AXIS":"6917.893","DECAY_DATE":null,"ELEMENT_SET_NO":"999","APOAPSIS":"540.868","MEAN_MOTION_DOT":"0.00000074","INCLINATION":"53.2177","OBJECT_TYPE":"PAYLOAD","LAUNCH_DATE":"2022-01-06","MEAN_MOTION_DDOT":"0.0000000000000","ARG_OF_PERICENTER":"57.9656","GP_ID":"212271314","OBJECT_ID":"2022-001L","SITE":"AFETR","CLASSIFICATION_TYPE":"U","REF_FRAME":"TEME","TLE_LINE2":"2 50813  53.2177 126.7790 0001605  57.9656 302.1492 15.08835974 37939","TIME_SYSTEM":"UTC"},{"DECAY_DATE":null,"ELEMENT_SET_NO":"999","APOAPSIS":"541.074","MEAN_MOTION_DOT":"-0.00003085","INCLINATION":"53.2189","OBJECT_TYPE":"PAYLOAD","LAUNCH_DATE":"2022-01-06","MEAN_MOTION_DDOT":"0.0000000000000","ARG_OF_PERICENTER":"69.6717","GP_ID":"212271565","SITE":"AFETR","OBJECT_ID":"2022-001M","CLASSIFICATION_TYPE":"U","REF_FRAME":"TEME","TLE_LINE2":"2 50814  53.2189 136.5637 0001972  69.6717 290.4487 15.08851512 37802","TIME_SYSTEM":"UTC","COUNTRY_CODE":"US","MEAN_ANOMALY":"290.4487","OBJECT_NAME":"STARLINK-3324","RA_OF_ASC_NODE":"136.5637","MEAN_MOTION":"15.08851512","BSTAR":"-0.00017575000000","PERIOD":"95.437","TLE_LINE1":"1 50814U 22001M   22253.85637612 -.00003085  00000-0 -17575-3 0  9991","REV_AT_EPOCH":"3780","CENTER_NAME":"EARTH","NORAD_CAT_ID":"50814","RCS_SIZE":"LARGE","MEAN_ELEMENT_THEORY":"SGP4","ECCENTRICITY":"0.00019720","EPHEMERIS_TYPE":"0","PERIAPSIS":"538.346","FILE":"3567798","EPOCH":"2022-09-10T20:33:10.896768","SEMIMAJOR_AXIS":"6917.845"},{"LAUNCH_DATE":"2022-01-06","ARG_OF_PERICENTER":"57.0719","GP_ID":"212270313","MEAN_MOTION_DDOT":"0.0000000000000","OBJECT_ID":"2022-001N","SITE":"AFETR","CLASSIFICATION_TYPE":"U","TLE_LINE2":"2 50815  53.2181 136.5068 0002044  57.0719 303.0469 15.08840115 37805","TIME_SYSTEM":"UTC","REF_FRAME":"TEME","DECAY_DATE":null,"APOAPSIS":"541.159","ELEMENT_SET_NO":"999","INCLINATION":"53.2181","MEAN_MOTION_DOT":"0.00000090","OBJECT_TYPE":"PAYLOAD","MEAN_ELEMENT_THEORY":"SGP4","RCS_SIZE":"LARGE","ECCENTRICITY":"0.00020440","EPHEMERIS_TYPE":"0","PERIAPSIS":"538.331","FILE":"3567798","SEMIMAJOR_AXIS":"6917.880","EPOCH":"2022-09-10T20:49:04.336320","RA_OF_ASC_NODE":"136.5068","OBJECT_NAME":"STARLINK-3234","COUNTRY_CODE":"US","MEAN_ANOMALY":"303.0469","MEAN_MOTION":"15.08840115","PERIOD":"95.438","BSTAR":"0.00002373700000","CENTER_NAME":"EARTH","TLE_LINE1":"1 50815U 22001N   22253.86741130  .00000090  00000-0  23737-4 0  9993","REV_AT_EPOCH":"3780","NORAD_CAT_ID":"50815"},{"TLE_LINE1":"1 50816U 22001P   22253.83797403  .00000349  00000-0  40044-4 0  9992","REV_AT_EPOCH":"3779","CENTER_NAME":"EARTH","PERIOD":"95.437","BSTAR":"0.00004004400000","NORAD_CAT_ID":"50816","MEAN_MOTION":"15.08844500","MEAN_ANOMALY":"301.4498","COUNTRY_CODE":"US","RA_OF_ASC_NODE":"136.6535","OBJECT_NAME":"STARLINK-3342","FILE":"3567798","PERIAPSIS":"538.545","EPOCH":"2022-09-10T20:06:40.956192","SEMIMAJOR_AXIS":"6917.867","ECCENTRICITY":"0.00017150","RCS_SIZE":"LARGE","MEAN_ELEMENT_THEORY":"SGP4","EPHEMERIS_TYPE":"0","MEAN_MOTION_DOT":"0.00000349","INCLINATION":"53.2172","OBJECT_TYPE":"PAYLOAD","DECAY_DATE":null,"ELEMENT_SET_NO":"999","APOAPSIS":"540.918","CLASSIFICATION_TYPE":"U","SITE":"AFETR","OBJECT_ID":"2022-001P","REF_FRAME":"TEME","TLE_LINE2":"2 50816  53.2172 136.6535 0001715  58.6662 301.4498 15.08844500 37798","TIME_SYSTEM":"UTC","MEAN_MOTION_DDOT":"0.0000000000000","ARG_OF_PERICENTER":"58.6662","GP_ID":"212270563","LAUNCH_DATE":"2022-01-06"},{"BSTAR":"-0.00000745280000","PERIOD":"95.437","CENTER_NAME":"EARTH","REV_AT_EPOCH":"3780","TLE_LINE1":"1 50817U 22001Q   22253.86373683 -.00000407  00000-0 -74528-5 0  9998","NORAD_CAT_ID":"50817","RA_OF_ASC_NODE":"136.5280","OBJECT_NAME":"STARLINK-3341","COUNTRY_CODE":"US","MEAN_ANOMALY":"294.6622","MEAN_MOTION":"15.08843335","PERIAPSIS":"538.491","FILE":"3567798","SEMIMAJOR_AXIS":"6917.870","EPOCH":"2022-09-10T20:43:46.862112","RCS_SIZE":"LARGE","MEAN_ELEMENT_THEORY":"SGP4","ECCENTRICITY":"0.00017990","EPHEMERIS_TYPE":"0","INCLINATION":"53.2177","MEAN_MOTION_DOT":"-0.00000407","OBJECT_TYPE":"PAYLOAD","DECAY_DATE":null,"APOAPSIS":"540.980","ELEMENT_SET_NO":"999","OBJECT_ID":"2022-001Q","SITE":"AFETR","CLASSIFICATION_TYPE":"U","TLE_LINE2":"2 50817  53.2177 136.5280 0001799  65.4558 294.6622 15.08843335 37801","TIME_SYSTEM":"UTC","REF_FRAME":"TEME","LAUNCH_DATE":"2022-01-06","GP_ID":"212270815","ARG_OF_PERICENTER":"65.4558","MEAN_MOTION_DDOT":"0.0000000000000"},{"OBJECT_TYPE":"PAYLOAD","MEAN_MOTION_DOT":"-0.00000889","INCLINATION":"53.2167","ELEMENT_SET_NO":"999","APOAPSIS":"540.839","DECAY_DATE":null,"REF_FRAME":"TEME","TLE_LINE2":"2 50818  53.2167 136.6012 0001572  57.8987 302.2158 15.08837982 37794","TIME_SYSTEM":"UTC","SITE":"AFETR","OBJECT_ID":"2022-001R","CLASSIFICATION_TYPE":"U","LAUNCH_DATE":"2022-01-06","MEAN_MOTION_DDOT":"0.0000000000000","GP_ID":"212271066","ARG_OF_PERICENTER":"57.8987","NORAD_CAT_ID":"50818","BSTAR":"-0.00003777800000","PERIOD":"95.438","REV_AT_EPOCH":"3779","TLE_LINE1":"1 50818U 22001R   22253.84533468 -.00000889  00000-0 -37778-4 0  9995","CENTER_NAME":"EARTH","MEAN_ANOMALY":"302.2158","COUNTRY_CODE":"US","RA_OF_ASC_NODE":"136.6012","OBJECT_NAME":"STARLINK-3336","MEAN_MOTION":"15.08837982","EPOCH":"2022-09-10T20:17:16.916352","SEMIMAJOR_AXIS":"6917.887","PERIAPSIS":"538.664","FILE":"3567798","EPHEMERIS_TYPE":"0","RCS_SIZE":"LARGE","MEAN_ELEMENT_THEORY":"SGP4","ECCENTRICITY":"0.00015720"},{"LAUNCH_DATE":"2022-01-06","MEAN_MOTION_DDOT":"0.0000000000000","GP_ID":"212269814","ARG_OF_PERICENTER":"52.2423","REF_FRAME":"TEME","TLE_LINE2":"2 50819  53.2193 136.5772 0001667  52.2423 307.8720 15.08835962 37809","TIME_SYSTEM":"UTC","OBJECT_ID":"2022-001S","SITE":"AFETR","CLASSIFICATION_TYPE":"U","ELEMENT_SET_NO":"999","APOAPSIS":"540.911","DECAY_DATE":null,"OBJECT_TYPE":"PAYLOAD","MEAN_MOTION_DOT":"-0.00000482","INCLINATION":"53.2193","EPHEMERIS_TYPE":"0","RCS_SIZE":"LARGE","MEAN_ELEMENT_THEORY":"SGP4","ECCENTRICITY":"0.00016670","EPOCH":"2022-09-10T20:27:53.356032","SEMIMAJOR_AXIS":"6917.893","PERIAPSIS":"538.605","FILE":"3567798","MEAN_ANOMALY":"307.8720","COUNTRY_CODE":"US","RA_OF_ASC_NODE":"136.5772","OBJECT_NAME":"STARLINK-3327","MEAN_MOTION":"15.08835962","NORAD_CAT_ID":"50819","PERIOD":"95.438","BSTAR":"-0.00001217500000","REV_AT_EPOCH":"3780","TLE_LINE1":"1 50819U 22001S   22253.85270088 -.00000482  00000-0 -12175-4 0  9996","CENTER_NAME":"EARTH"}];
